     3.00           N                   E                   RINEX VERSION / TYPE
BRD_USR             ESA                 20190113 101741  UTCPGM / RUN BY / DATE
 GAL   3.9000E+01  9.3750E-02 -1.2207E-03  0.0000E+00       IONOSPHERIC CORR
GAUT  1.8626451492E-09-1.776356839E-15      0 2036 GSTB   0 TIME SYSTEM CORR
GPGA  8.7311491370E-11-3.108624469E-15      0 2036 GSTB   0 TIME SYSTEM CORR
                                                            END OF HEADER
E11 2019 01 13 08 00 00 5.719692562707E-03 7.673861546209E-13 0.000000000000E+00
     4.800000000000E+01 1.925000000000E+01 2.987981604284E-09-3.084154667193E+00
     1.002103090286E-06 2.788804704323E-04 5.971640348434E-06 5.440603101730E+03
     2.880000000000E+04-3.166496753693E-08-9.846925568775E-01-3.539025783539E-08
     9.819433461332E-01 2.234062500000E+02-3.414464109564E-01-5.585232647358E-09
     2.957266039144E-10 5.210000000000E+02 2.036000000000E+03 0.000000000000E+00
     3.120000000000E+00 0.000000000000E+00-1.839362084866E-08-2.002343535423E-08
     2.975500000000E+04 0.000000000000E+00 0.000000000000E+00 0.000000000000E+00
E13 2019 01 13 08 00 00 3.816732205451E-04 4.405364961713E-13 0.000000000000E+00
     4.800000000000E+01 3.100000000000E+01 2.974409610385E-09 1.225318959179E+00
     1.475214958191E-06 3.428360214457E-04 6.061047315598E-06 5.440599727631E+03
     2.880000000000E+04 3.352761268616E-08-9.899779672532E-01 1.117587089539E-08
     9.851850072871E-01 2.248750000000E+02-1.502793406429E+00-5.650235354982E-09
     3.468001599044E-10 5.210000000000E+02 2.036000000000E+03 0.000000000000E+00
     3.120000000000E+00 4.550000000000E+02-4.423782229424E-09-5.587935447693E-09
     2.975500000000E+04 0.000000000000E+00 0.000000000000E+00 0.000000000000E+00
E07 2019 01 13 08 00 00-1.116778585128E-04-7.091216502886E-12 0.000000000000E+00
     4.800000000000E+01-2.078125000000E+01 3.191918670510E-09-2.359659496512E+00
    -9.629875421524E-07 1.345503842458E-04 1.162476837635E-05 5.440626714706E+03
     2.880000000000E+04 4.284083843231E-08 1.120642988124E+00-7.450580596924E-09
     9.524954605849E-01 8.500000000000E+01-2.015466919144E-02-5.602019060866E-09
    -1.175048945505E-10 2.580000000000E+02 2.036000000000E+03 0.000000000000E+00
     3.120000000000E+00 0.000000000000E+00 4.656612873077E-10 0.000000000000E+00
     2.990000000000E+04 0.000000000000E+00 0.000000000000E+00 0.000000000000E+00
E07 2019 01 13 08 00 00-1.116777420975E-04-7.091216502886E-12 0.000000000000E+00
     4.800000000000E+01-2.078125000000E+01 3.191918670510E-09-2.359659496512E+00
    -9.629875421524E-07 1.345503842458E-04 1.162476837635E-05 5.440626714706E+03
     2.880000000000E+04 4.284083843231E-08 1.120642988124E+00-7.450580596924E-09
     9.524954605849E-01 8.500000000000E+01-2.015466919144E-02-5.602019060866E-09
    -1.175048945505E-10 5.210000000000E+02 2.036000000000E+03 0.000000000000E+00
     3.120000000000E+00 0.000000000000E+00 4.656612873077E-10 2.328306436539E-10
     2.990500000000E+04 0.000000000000E+00 0.000000000000E+00 0.000000000000E+00
E01 2019 01 13 08 00 00-5.197438294999E-04-8.157030606526E-12 0.000000000000E+00
     4.800000000000E+01 1.609375000000E+01 2.834046620846E-09 8.376012086295E-01
     8.028000593185E-07 9.258533827960E-05 5.394220352173E-06 5.440612789154E+03
     2.880000000000E+04 3.725290298462E-09-3.069973919068E+00 3.166496753693E-08
     9.901191754208E-01 2.375937500000E+02-5.945847244175E-01-5.577375177206E-09
    -1.717928701483E-10 2.580000000000E+02 2.036000000000E+03 0.000000000000E+00
     3.120000000000E+00 0.000000000000E+00-4.656612873077E-09 0.000000000000E+00
     3.005000000000E+04 0.000000000000E+00 0.000000000000E+00 0.000000000000E+00
E01 2019 01 13 08 00 00-5.197442369536E-04-8.157030606526E-12 0.000000000000E+00
     4.800000000000E+01 1.609375000000E+01 2.834046620846E-09 8.376012086295E-01
     8.028000593185E-07 9.258533827960E-05 5.394220352173E-06 5.440612789154E+03
     2.880000000000E+04 3.725290298462E-09-3.069973919068E+00 3.166496753693E-08
     9.901191754208E-01 2.375937500000E+02-5.945847244175E-01-5.577375177206E-09
    -1.717928701483E-10 5.210000000000E+02 2.036000000000E+03 0.000000000000E+00
     3.120000000000E+00 0.000000000000E+00-4.656612873077E-09-5.355104804039E-09
     3.005500000000E+04 0.000000000000E+00 0.000000000000E+00 0.000000000000E+00
E01 2019 01 13 08 10 00-5.197491263971E-04-8.157030606526E-12 0.000000000000E+00
     4.900000000000E+01 1.609375000000E+01 2.831189358972E-09 9.119842438958E-01
     7.972121238708E-07 9.258475620300E-05 5.396082997322E-06 5.440612789154E+03
     2.940000000000E+04 1.862645149231E-09-3.069977257447E+00 3.725290298462E-08
     9.901190920344E-01 2.375937500000E+02-5.945825475954E-01-5.574517915332E-09
    -1.735786588193E-10 5.210000000000E+02 2.036000000000E+03 0.000000000000E+00
     3.120000000000E+00 0.000000000000E+00-4.656612873077E-09-5.355104804039E-09
     3.008500000000E+04 0.000000000000E+00 0.000000000000E+00 0.000000000000E+00
E02 2019 01 13 08 10 00 4.313344834372E-05 1.605826582818E-12 0.000000000000E+00
     4.900000000000E+01 1.287500000000E+01 2.765115178146E-09-2.676794508699E+00
     6.258487701416E-07 2.583630848676E-04 5.807727575302E-06 5.440617656708E+03
     2.940000000000E+04-1.490116119385E-08-3.070009631824E+00-3.725290298462E-09
     9.901271717310E-01 2.301250000000E+02-1.491123169094E-01-5.543088034723E-09
    -2.025084352892E-10 5.210000000000E+02 2.036000000000E+03 0.000000000000E+00
     3.120000000000E+00 0.000000000000E+00-5.820766091347E-09-7.217749953270E-09
     3.008500000000E+04 0.000000000000E+00 0.000000000000E+00 0.000000000000E+00
E05 2019 01 13 08 10 00 1.258903648704E-04-6.565414878423E-12 0.000000000000E+00
     4.900000000000E+01-3.118750000000E+01 3.209776557220E-09-1.561986932557E+00
    -1.534819602966E-06 1.346758799627E-04 1.006759703159E-05 5.440623447418E+03
     2.940000000000E+04-9.313225746155E-09 1.120621875291E+00 1.117587089539E-08
     9.524653742117E-01 1.180937500000E+02 1.614466289367E+00-5.584161174156E-09
    -8.071764792831E-11 5.210000000000E+02 2.036000000000E+03 0.000000000000E+00
     3.120000000000E+00 0.000000000000E+00-1.629814505577E-09-1.862645149231E-09
     3.008500000000E+04 0.000000000000E+00 0.000000000000E+00 0.000000000000E+00
E07 2019 01 13 08 10 00-1.116819912568E-04-7.091216502886E-12 0.000000000000E+00
     4.900000000000E+01-2.103125000000E+01 3.195490247852E-09-2.285533310162E+00
    -9.685754776001E-07 1.345667988062E-04 1.162476837635E-05 5.440626636505E+03
     2.940000000000E+04 4.470348358154E-08 1.120639620487E+00-7.450580596924E-09
     9.524953830502E-01 8.518750000000E+01-1.989601210877E-02-5.602733376334E-09
    -1.164334213479E-10 5.210000000000E+02 2.036000000000E+03 0.000000000000E+00
     3.120000000000E+00 0.000000000000E+00 4.656612873077E-10 2.328306436539E-10
     3.008500000000E+04 0.000000000000E+00 0.000000000000E+00 0.000000000000E+00
E08 2019 01 13 08 10 00 6.424372782931E-03-7.460698725481E-12 0.000000000000E+00
     4.900000000000E+01-1.893750000000E+01 3.137273537178E-09-1.990981396550E+00
    -8.847564458847E-07 2.156796399504E-04 1.083314418793E-05 5.440618621826E+03
     2.940000000000E+04 9.313225746155E-09 1.112030192521E+00 2.048909664154E-08
     9.584387042591E-01 1.083437500000E+02 4.721526744141E-01-5.509872365443E-09
    -8.464638300447E-11 5.210000000000E+02 2.036000000000E+03 0.000000000000E+00
     3.120000000000E+00 0.000000000000E+00-8.614733815193E-09-1.001171767712E-08
     3.008500000000E+04 0.000000000000E+00 0.000000000000E+00 0.000000000000E+00
E11 2019 01 13 08 10 00 5.719692970160E-03 7.673861546209E-13 0.000000000000E+00
     4.900000000000E+01 1.865625000000E+01 2.992624654829E-09-3.010267735243E+00
     9.723007678986E-07 2.791568404064E-04 6.087124347687E-06 5.440602479935E+03
     2.940000000000E+04-3.166496753693E-08-9.846959098857E-01-3.352761268616E-08
     9.819435333867E-01 2.210625000000E+02-3.409477694774E-01-5.583446858687E-09
     2.953694461802E-10 5.210000000000E+02 2.036000000000E+03 0.000000000000E+00
     3.120000000000E+00 0.000000000000E+00-1.839362084866E-08-2.002343535423E-08
     3.008500000000E+04 0.000000000000E+00 0.000000000000E+00 0.000000000000E+00
E13 2019 01 13 08 10 00 3.816734533757E-04 4.405364961713E-13 0.000000000000E+00
     4.900000000000E+01 3.137500000000E+01 2.967266455701E-09 1.299197388649E+00
     1.488253474236E-06 3.428241470829E-04 6.008893251419E-06 5.440600076675E+03
     2.940000000000E+04 3.539025783539E-08-9.899813597602E-01 1.117587089539E-08
     9.851852208732E-01 2.261875000000E+02-1.502285918684E+00-5.649163881779E-09
     3.468001599044E-10 5.210000000000E+02 2.036000000000E+03 0.000000000000E+00
     3.120000000000E+00 4.550000000000E+02-4.423782229424E-09-5.587935447693E-09
     3.008500000000E+04 0.000000000000E+00 0.000000000000E+00 0.000000000000E+00
E15 2019 01 13 08 10 00 9.230974246748E-04-9.947598300641E-13 0.000000000000E+00
     4.900000000000E+01 2.887500000000E+01 2.932264997750E-09 2.172502861190E+00
     1.283362507820E-06 3.899125149474E-04 5.779787898064E-06 5.440597524643E+03
     2.940000000000E+04 1.490116119385E-08-9.899929607006E-01 4.842877388000E-08
     9.851435350225E-01 2.307187500000E+02-1.593312492478E+00-5.618091158904E-09
     2.992981812563E-10 5.210000000000E+02 2.036000000000E+03 0.000000000000E+00
     3.120000000000E+00 4.550000000000E+02 1.396983861923E-09 1.164153218269E-09
     3.008500000000E+04 0.000000000000E+00 0.000000000000E+00 0.000000000000E+00
